{"type":"Topology","objects":{"Vendor_ID_to_Zipcode_-_Sample_data_":{"type":"GeometryCollection","geometries":[{"type":"Point","coordinates":[138225,999999],"properties":{"VENDOR_NAME":"DAN COOK HTG & A/C, INC.","VENDOR_TYPE_CODE":"SR","VENDOR_ID":"17090","COMMERCIAL_PROPERTY_ID":"217090","TRADE_CODE":"PSC","ZIP_CODE":"37705","SERVICE_AREA_TYPE_CODE":"PRIMARY","Latitude":36.2179,"Longitude":-84.0113}},{"type":"Point","coordinates":[135370,998188],"properties":{"VENDOR_NAME":"","VENDOR_TYPE_CODE":"","VENDOR_ID":"17090","COMMERCIAL_PROPERTY_ID":"217090","TRADE_CODE":"PSC","ZIP_CODE":"37710","SERVICE_AREA_TYPE_CODE":"PRIMARY","Latitude":36.1523,"Longitude":-84.2897}},{"type":"Point","coordinates":[136837,996724],"properties":{"VENDOR_NAME":"","VENDOR_TYPE_CODE":"","VENDOR_ID":"17090","COMMERCIAL_PROPERTY_ID":"217090","TRADE_CODE":"PSC","ZIP_CODE":"37716","SERVICE_AREA_TYPE_CODE":"PRIMARY","Latitude":36.0993,"Longitude":-84.1466}},{"type":"Point","coordinates":[135567,993781],"properties":{"VENDOR_NAME":"","VENDOR_TYPE_CODE":"","VENDOR_ID":"17090","COMMERCIAL_PROPERTY_ID":"217090","TRADE_CODE":"PSC","ZIP_CODE":"37830","SERVICE_AREA_TYPE_CODE":"PRIMARY","Latitude":35.9927,"Longitude":-84.2704}},{"type":"Point","coordinates":[134578,995244],"properties":{"VENDOR_NAME":"","VENDOR_TYPE_CODE":"","VENDOR_ID":"17090","COMMERCIAL_PROPERTY_ID":"217090","TRADE_CODE":"PSC","ZIP_CODE":"37840","SERVICE_AREA_TYPE_CODE":"PRIMARY","Latitude":36.0457,"Longitude":-84.3669}},{"type":"Point","coordinates":[133766,996501],"properties":{"VENDOR_NAME":"","VENDOR_TYPE_CODE":"","VENDOR_ID":"17090","COMMERCIAL_PROPERTY_ID":"217090","TRADE_CODE":"PSC","ZIP_CODE":"37845","SERVICE_AREA_TYPE_CODE":"PRIMARY","Latitude":36.0912,"Longitude":-84.446}},{"type":"Point","coordinates":[137129,993323],"properties":{"VENDOR_NAME":"","VENDOR_TYPE_CODE":"","VENDOR_ID":"17090","COMMERCIAL_PROPERTY_ID":"217090","TRADE_CODE":"PSC","ZIP_CODE":"37931","SERVICE_AREA_TYPE_CODE":"PRIMARY","Latitude":35.9761,"Longitude":-84.1182}},{"type":"Point","coordinates":[999999,0],"properties":{"VENDOR_NAME":"VENDOR_NAME","VENDOR_TYPE_CODE":"VENDOR_TYPE_CODE","VENDOR_ID":"VENDOR_ID","COMMERCIAL_PROPERTY_ID":"COMMERCIAL_PROPERTY_ID","TRADE_CODE":"TRADE_CODE","ZIP_CODE":"ZIP_CODE","SERVICE_AREA_TYPE_CODE":"SERVICE_AREA_TYPE_CODE","Latitude":0,"Longitude":0}},{"type":"Point","coordinates":[1800,858503],"properties":{"VENDOR_NAME":"COVE PLUMBING INC.","VENDOR_TYPE_CODE":"SR","VENDOR_ID":"5085","COMMERCIAL_PROPERTY_ID":"205085","TRADE_CODE":"PLB","ZIP_CODE":"76501","SERVICE_AREA_TYPE_CODE":"SECONDARY","Latitude":31.0932,"Longitude":-97.3109}},{"type":"Point","coordinates":[878,858318],"properties":{"VENDOR_NAME":"","VENDOR_TYPE_CODE":"","VENDOR_ID":"5085","COMMERCIAL_PROPERTY_ID":"205085","TRADE_CODE":"PLB","ZIP_CODE":"76502","SERVICE_AREA_TYPE_CODE":"SECONDARY","Latitude":31.0865,"Longitude":-97.4008}},{"type":"Point","coordinates":[1320,858677],"properties":{"VENDOR_NAME":"","VENDOR_TYPE_CODE":"","VENDOR_ID":"5085","COMMERCIAL_PROPERTY_ID":"205085","TRADE_CODE":"PLB","ZIP_CODE":"76504","SERVICE_AREA_TYPE_CODE":"SECONDARY","Latitude":31.0995,"Longitude":-97.3577}},{"type":"Point","coordinates":[0,857953],"properties":{"VENDOR_NAME":"","VENDOR_TYPE_CODE":"","VENDOR_ID":"5085","COMMERCIAL_PROPERTY_ID":"205085","TRADE_CODE":"PLB","ZIP_CODE":"76513","SERVICE_AREA_TYPE_CODE":"SECONDARY","Latitude":31.0733,"Longitude":-97.4864}},{"type":"Point","coordinates":[999999,0],"properties":{"VENDOR_NAME":"VENDOR_NAME","VENDOR_TYPE_CODE":"VENDOR_TYPE_CODE","VENDOR_ID":"VENDOR_ID","COMMERCIAL_PROPERTY_ID":"COMMERCIAL_PROPERTY_ID","TRADE_CODE":"TRADE_CODE","ZIP_CODE":"ZIP_CODE","SERVICE_AREA_TYPE_CODE":"SERVICE_AREA_TYPE_CODE","Latitude":0,"Longitude":0}},{"type":"Point","coordinates":[156429,946683],"properties":{"VENDOR_NAME":"L & M APPLIANCE REPAIR","VENDOR_TYPE_CODE":"SR","VENDOR_ID":"142152","COMMERCIAL_PROPERTY_ID":"642832","TRADE_CODE":"APL","ZIP_CODE":"29653","SERVICE_AREA_TYPE_CODE":"TERTIARY","Latitude":34.2869,"Longitude":-82.2367}},{"type":"Point","coordinates":[34700,830365],"properties":{"VENDOR_NAME":"BLUE WATER POOL SERVICE","VENDOR_TYPE_CODE":"SR","VENDOR_ID":"376841","COMMERCIAL_PROPERTY_ID":"1618971","TRADE_CODE":"SPA","ZIP_CODE":"77701","SERVICE_AREA_TYPE_CODE":"TERTIARY","Latitude":30.0741,"Longitude":-94.1036}}]}},"arcs":[],"bbox":[-97.4864,0,0,36.2179],"transform":{"scale":[0.0000974864974864975,0.00003621793621793622],"translate":[-97.4864,0]}}
